STARLINK-34431          
1 64353U 25126K   25183.91667824 -.01424271  00000+0 -17936-1 0  9998
2 64353  69.9990 309.2940 0003199 270.3386  22.5878 15.62211864  4375
STARLINK-34473          
1 64354U 25126L   25183.91667824 -.01428758  00000+0 -17996-1 0  9999
2 64354  69.9990 309.2919 0003366 272.9119  21.9315 15.62213840  4375
STARLINK-34270          
1 64355U 25126M   25183.91667824 -.01418968  00000+0 -17864-1 0  9996
2 64355  69.9992 309.2866 0003212 269.5029  29.1750 15.62208694  4375
STARLINK-34397          
1 64356U 25126N   25183.91667824 -.01424475  00000+0 -17936-1 0  9997
2 64356  69.9990 309.2842 0003383 266.9065  33.6841 15.62213797  4379
STARLINK-34454          
1 64357U 25126P   25183.91667824 -.01424651  00000+0 -17940-1 0  9999
2 64357  69.9994 309.2822 0003293 266.9214  35.5873 15.62212663  4375
STARLINK-34436          
1 64358U 25126Q   25183.91667824 -.01420098  00000+0 -17879-1 0  9992
2 64358  69.9992 309.2798 0003190 267.2451  37.1799 15.62210081  4376
STARLINK-34291          
1 64359U 25126R   25183.91667824 -.01433886  00000+0 -18066-1 0  9991
2 64359  69.9989 309.2777 0003302 272.3240  34.0160 15.62217094  4377
STARLINK-34458          
1 64360U 25126S   25183.91667824 -.01432001  00000+0 -18040-1 0  9993
2 64360  69.9990 309.2749 0003450 271.4913  36.7681 15.62214801  4371
STARLINK-34243          
1 64361U 25126T   25183.91667824 -.01432633  00000+0 -18048-1 0  9993
2 64361  69.9989 309.2700 0003261 270.5093  41.5777 15.62218216  4370
STARLINK-34335          
1 64362U 25126U   25183.91667824 -.01425031  00000+0 -17943-1 0  9991
2 64362  69.9991 309.2727 0003564 268.8515  41.3231 15.62212763  4372
STARLINK-34408          
1 64363U 25126V   25183.91667824 -.01419880  00000+0 -17875-1 0  9991
2 64363  69.9992 309.2678 0003349 267.8570  46.1516 15.62209598  4371
STARLINK-34476          
1 64364U 25126W   25183.91667824 -.01419086  00000+0 -17865-1 0  9999
2 64364  69.9991 309.2655 0003198 268.0992  47.8249 15.62209782  4375
STARLINK-34479          
1 64365U 25126X   25183.91667824 -.01421006  00000+0 -17889-1 0  9991
2 64365  69.9992 309.2630 0003376 267.5124  50.3283 15.62211772  4378
STARLINK-34484          
1 64366U 25126Y   25183.91667824 -.01424882  00000+0 -17944-1 0  9999
2 64366  69.9991 309.2586 0003251 268.1681  53.5056 15.62212030  4376
STARLINK-34483          
1 64367U 25126Z   25183.91667824 -.01424505  00000+0 -17939-1 0  9996
2 64367  69.9990 309.2539 0003267 271.3768  54.1305 15.62211458  4370
STARLINK-34457          
1 64368U 25126AA  25183.91667824 -.01426648  00000+0 -17966-1 0  9997
2 64368  69.9989 309.2613 0003409 267.4654  52.2913 15.62214037  4370
STARLINK-34444          
1 64369U 25126AB  25183.91667824 -.01434149  00000+0 -18069-1 0  9998
2 64369  69.9992 309.2569 0003325 270.7072  52.8812 15.62217791  4377
STARLINK-11732 [DTC]    
1 64370U 25127A   25183.90379288  .00250040  00000+0  13890-2 0  9995
2 64370  42.9997 153.2094 0002036 246.6512 113.4144 15.77999079  4187
STARLINK-11731 [DTC]    
1 64371U 25127B   25183.89891555  .00252621  00000+0  14078-2 0  9996
2 64371  43.0001 153.1707 0001989 240.8358 119.2313 15.77920965  4186
STARLINK-11746 [DTC]    
1 64372U 25127C   25183.95733589  .00249796  00000+0  13894-2 0  9990
2 64372  43.0001 152.7456 0001815 291.1974  68.8703 15.77971715  4196
STARLINK-11748 [DTC]    
1 64373U 25127D   25183.91667824  .00094201  00000+0  53922-3 0  9991
2 64373  43.0002 152.8544 0001461 257.1151 287.2130 15.77814523  4153
STARLINK-11739 [DTC]    
1 64374U 25127E   25183.91667824  .00061973  00000+0  35686-3 0  9999
2 64374  43.0000 152.9241 0001448 267.6191 248.9549 15.77827543  4156
STARLINK-11738 [DTC]    
1 64375U 25127F   25183.91667824  .00084690  00000+0  48567-3 0  9993
2 64375  43.0001 152.7848 0001528 259.6678 312.4128 15.77811516  4152
STARLINK-11745 [DTC]    
1 64376U 25127G   25183.91667824  .00052932  00000+0  30544-3 0  9994
2 64376  43.0002 152.7151 0001689 256.4578 343.3616 15.77834478  4150
STARLINK-11742 [DTC]    
1 64377U 25127H   25183.91667824 -.00795084  00000+0 -48552-2 0  9996
2 64377  43.0010 152.6479 0001187 262.2622   4.8285 15.78544676  4150
STARLINK-11711 [DTC]    
1 64378U 25127J   25183.92685808  .00314103  00000+0  13816-2 0  9992
2 64378  43.0017 152.4950 0001446 207.4267 152.6529 15.82911016  4305
STARLINK-11743 [DTC]    
1 64379U 25127K   25183.04392853  .00076475  00000+0  31897-3 0  9998
2 64379  43.0023 157.9202 0001154 244.3467 115.7287 15.84721834  4053
STARLINK-11744 [DTC]    
1 64380U 25127L   25183.92600940  .00209799  00000+0  85260-3 0  9996
2 64380  43.0015 152.4910 0001474 293.8770  66.1948 15.84847878  4198
STARLINK-11692 [DTC]    
1 64381U 25127M   25183.92535475  .00180967  00000+0  73848-3 0  9991
2 64381  43.0015 152.4861 0002326 289.9542  70.1080 15.84838277  4302
STARLINK-11740 [DTC]    
1 64382U 25127N   25183.92481615  .00337150  00000+0  13522-2 0  9998
2 64382  43.0017 152.4806 0001128 281.9887  78.0859 15.84795163  4191
STARLINK-34299          
1 64383U 25127P   25183.91667824 -.01545565  00000+0 -19384-1 0  9991
2 64383  42.9998 153.3963 0001429 271.3602  54.6653 15.61966304  4211
STARLINK-34271          
1 64384U 25127Q   25183.91667824 -.01547520  00000+0 -19411-1 0  9996
2 64384  43.0001 153.3921 0001371 269.2960  58.6465 15.61967621  4265
STARLINK-34100          
1 64385U 25127R   25183.91667824 -.01549292  00000+0 -19433-1 0  9999
2 64385  43.0003 153.3868 0001497 269.5493  60.3074 15.61970300  4210
STARLINK-34269          
1 64386U 25127S   25183.91667824 -.01542114  00000+0 -19335-1 0  9997
2 64386  43.0000 153.3823 0001435 268.3308  63.4431 15.61966728  4268
STARLINK-34351          
1 64387U 25127T   25183.91667824 -.01545420  00000+0 -19382-1 0  9993
2 64387  43.0002 153.3769 0001366 267.0517  66.6421 15.61966881  4265
STARLINK-34198          
1 64388U 25127U   25183.91667824 -.01541547  00000+0 -19328-1 0  9990
2 64388  43.0002 153.3718 0001443 267.6664  67.9436 15.61965368  4264
STARLINK-34279          
1 64389U 25127V   25183.91667824 -.01544272  00000+0 -19366-1 0  9991
2 64389  43.0002 153.3673 0001461 271.1924  66.3355 15.61965703  4260
STARLINK-34292          
1 64390U 25127W   25183.91667824 -.01547252  00000+0 -19406-1 0  9999
2 64390  43.0002 153.3623 0001432 271.0476  68.3951 15.61968626  4267
STARLINK-34278          
1 64391U 25127X   25183.91667824 -.01546839  00000+0 -19400-1 0  9994
2 64391  43.0002 153.3529 0001415 267.3743  75.9024 15.61969032  4266
STARLINK-33802          
1 64392U 25127Y   25183.91667824 -.01549973  00000+0 -19442-1 0  9993
2 64392  43.0002 153.3578 0001489 270.0792  71.2790 15.61971181  4310
ZHANGHENG 1-02 (CSES-2) 
1 64393U 25128A   25183.91132509 -.00000060  00000+0  33760-6 0  9993
2 64393  97.3184 314.7169 0009911 240.1805 119.8446 15.20666044  2830
STARLINK-34419          
1 64412U 25129A   25183.91667824 -.01503542  00000+0 -18613-1 0  9999
2 64412  69.9993 350.6556 0003420 272.2693  74.8228 15.62803023  3738
STARLINK-34275          
1 64413U 25129B   25183.91667824 -.01504952  00000+0 -18633-1 0  9998
2 64413  69.9994 350.6533 0003422 271.8265  77.1840 15.62802333  3736
STARLINK-34225          
1 64414U 25129C   25183.91667824 -.01575221  00000+0 -16692-1 0  9999
2 64414  69.9996 350.6365 0003968 280.0328  84.3940 15.66824224  3737
STARLINK-34422          
1 64415U 25129D   25183.91667824 -.01508360  00000+0 -18678-1 0  9996
2 64415  69.9994 350.6484 0003418 271.9960  80.8454 15.62805324  3624
STARLINK-34514          
1 64416U 25129E   25183.91667824 -.01510469  00000+0 -18706-1 0  9992
2 64416  69.9995 350.6466 0003388 275.0518  79.7034 15.62807325  3732
STARLINK-34487          
1 64417U 25129F   25183.91667824 -.01515420  00000+0 -18771-1 0  9997
2 64417  69.9999 350.6441 0003507 274.5078  82.1635 15.62810721  3625
STARLINK-34461          
1 64418U 25129G   25183.91667824 -.01510917  00000+0 -18712-1 0  9999
2 64418  69.9998 350.6416 0003487 274.0483  84.5427 15.62806388  3730
STARLINK-34512          
1 64419U 25129H   25183.91667824 -.01513680  00000+0 -18748-1 0  9999
2 64419  69.9993 350.6396 0003550 275.3129  85.1932 15.62808671  3572
STARLINK-34503          
1 64420U 25129J   25183.91667824 -.01511089  00000+0 -18713-1 0  9994
2 64420  69.9992 350.6368 0003519 272.8458  89.5763 15.62807855  3577
STARLINK-34498          
1 64421U 25129K   25183.91667824 -.01510061  00000+0 -18700-1 0  9990
2 64421  69.9994 350.6347 0003501 274.9633  89.3765 15.62806407  3736
STARLINK-34434          
1 64422U 25129L   25183.91667824 -.01504054  00000+0 -18619-1 0  9995
2 64422  69.9992 350.6320 0003465 273.8232  92.4328 15.62803947  3734
STARLINK-34467          
1 64423U 25129M   25183.91667824 -.01513244  00000+0 -18742-1 0  9994
2 64423  69.9994 350.6298 0003551 275.0617  93.1103 15.62808609  3737
STARLINK-34468          
1 64424U 25129N   25183.91667824 -.01504160  00000+0 -18620-1 0  9997
2 64424  69.9998 350.6272 0003567 274.0868  96.0039 15.62803322  3735
STARLINK-34452          
1 64425U 25129P   25183.91667824 -.01507694  00000+0 -18667-1 0  9994
2 64425  69.9997 350.6251 0003536 274.6671  97.3377 15.62806311  3736
STARLINK-34432          
1 64426U 25129Q   25183.91667824 -.01505633  00000+0 -18641-1 0  9998
2 64426  69.9995 350.6225 0003462 272.3241 101.5988 15.62803769  3620
STARLINK-34480          
1 64427U 25129R   25183.91667824 -.01510617  00000+0 -18707-1 0  9990
2 64427  69.9997 350.6199 0003550 273.8511 101.9879 15.62806763  3739
STARLINK-34495          
1 64428U 25129S   25183.91667824 -.01511437  00000+0 -18718-1 0  9994
2 64428  69.9997 350.6180 0003563 274.4752 103.2806 15.62807069  3733
STARLINK-34501          
1 64429U 25129T   25183.91667824 -.01511653  00000+0 -18722-1 0  9990
2 64429  69.9999 350.6158 0003470 274.6623 105.0094 15.62806863  3737
